{"type": "FeatureCollection", "features": [ {"type": "Feature", "properties": {"norad_id": 34058, "name": "COSMOS 2251 DEB", "group": "cosmos-2251-debris", "lat": -59.99134307772056, "lon": 12.257564443732933, "alt_km": 1039.0609598870114, "timestamp": "2025-12-22T11:33:20.833720+00:00", "meta": {"OBJECT_NAME": "COSMOS 2251 DEB", "OBJECT_ID": "1993-036JV", "EPOCH": "2025-12-22T03:54:21.153312", "MEAN_MOTION": 13.56090407, "ECCENTRICITY": 0.037753, "INCLINATION": 73.9315, "RA_OF_ASC_NODE": 162.8386, "ARG_OF_PERICENTER": 156.2846, "MEAN_ANOMALY": 328.1397, "EPHEMERIS_TYPE": 0, "CLASSIFICATION_TYPE": "U", "NORAD_CAT_ID": 34058, "ELEMENT_SET_NO": 999, "REV_AT_EPOCH": 83270, "BSTAR": 0.00067132, "MEAN_MOTION_DOT": 7.25e-06, "MEAN_MOTION_DDOT": 0}, "tle": {"line1": "1 34058U 93036JV  25356.16274483  .00000725  00000+0  67132-3 0  9992", "line2": "2 34058  73.9315 162.8386 0377530 156.2846 328.1397 13.56090407832709"}}, "geometry": {"type": "Point", "coordinates": [12.257564443732933, -59.99134307772056]}}, {"type": "Feature", "properties": {"norad_id": 34059, "name": "COSMOS 2251 DEB", "group": "cosmos-2251-debris", "lat": -68.55326215836261, "lon": 34.671423799563165, "alt_km": 709.9353573969902, "timestamp": "2025-12-22T11:33:20.833731+00:00", "meta": {"OBJECT_NAME": "COSMOS 2251 DEB", "OBJECT_ID": "1993-036JW", "EPOCH": "2025-12-21T17:55:33.913056", "MEAN_MOTION": 14.52995602, "ECCENTRICITY": 0.0018462, "INCLINATION": 74.0368, "RA_OF_ASC_NODE": 169.284, "ARG_OF_PERICENTER": 245.7491, "MEAN_ANOMALY": 128.8585, "EPHEMERIS_TYPE": 0, "CLASSIFICATION_TYPE": "U", "NORAD_CAT_ID": 34059, "ELEMENT_SET_NO": 999, "REV_AT_EPOCH": 88590, "BSTAR": 0.00061134, "MEAN_MOTION_DOT": 2.5e-05, "MEAN_MOTION_DDOT": 0}, "tle": {"line1": "1 34059U 93036JW  25355.74692029  .00002500  00000+0  61134-3 0  9995", "line2": "2 34059  74.0368 169.2840 0018462 245.7491 128.8585 14.52995602885904"}}, "geometry": {"type": "Point", "coordinates": [34.671423799563165, -68.55326215836261]}}, {"type": "Feature", "properties": {"norad_id": 34061, "name": "COSMOS 2251 DEB", "group": "cosmos-2251-debris", "lat": 18.510318703059124, "lon": 59.884337762766044, "alt_km": 771.1689572591276, "timestamp": "2025-12-22T11:33:20.833741+00:00", "meta": {"OBJECT_NAME": "COSMOS 2251 DEB", "OBJECT_ID": "1993-036JY", "EPOCH": "2025-12-22T03:10:38.826912", "MEAN_MOTION": 14.40375806, "ECCENTRICITY": 0.0020826, "INCLINATION": 74.0388, "RA_OF_ASC_NODE": 246.0278, "ARG_OF_PERICENTER": 321.5694, "MEAN_ANOMALY": 189.6619, "EPHEMERIS_TYPE": 0, "CLASSIFICATION_TYPE": "U", "NORAD_CAT_ID": 34061, "ELEMENT_SET_NO": 999, "REV_AT_EPOCH": 88315, "BSTAR": 0.00026252, "MEAN_MOTION_DOT": 8.09e-06, "MEAN_MOTION_DDOT": 0}, "tle": {"line1": "1 34061U 93036JY  25356.13239383  .00000809  00000+0  26252-3 0  9994", "line2": "2 34061  74.0388 246.0278 0020826 321.5694 189.6619 14.40375806883156"}}, "geometry": {"type": "Point", "coordinates": [59.884337762766044, 18.510318703059124]}}, {"type": "Feature", "properties": {"norad_id": 34062, "name": "COSMOS 2251 DEB", "group": "cosmos-2251-debris", "lat": -9.13574212205771, "lon": -58.48817356679376, "alt_km": 585.0616449945755, "timestamp": "2025-12-22T11:33:20.833751+00:00", "meta": {"OBJECT_NAME": "COSMOS 2251 DEB", "OBJECT_ID": "1993-036JZ", "EPOCH": "2025-12-21T19:08:56.488128", "MEAN_MOTION": 14.78994852, "ECCENTRICITY": 0.007341, "INCLINATION": 74.0286, "RA_OF_ASC_NODE": 120.2166, "ARG_OF_PERICENTER": 197.441, "MEAN_ANOMALY": 313.706, "EPHEMERIS_TYPE": 0, "CLASSIFICATION_TYPE": "U", "NORAD_CAT_ID": 34062, "ELEMENT_SET_NO": 999, "REV_AT_EPOCH": 88729, "BSTAR": 0.0023472, "MEAN_MOTION_DOT": 0.0001816, "MEAN_MOTION_DDOT": 0}, "tle": {"line1": "1 34062U 93036JZ  25355.79787602  .00018160  00000+0  23472-2 0  9997", "line2": "2 34062  74.0286 120.2166 0073410 197.4410 313.7060 14.78994852887294"}}, "geometry": {"type": "Point", "coordinates": [-58.48817356679376, -9.13574212205771]}}, {"type": "Feature", "properties": {"norad_id": 34064, "name": "COSMOS 2251 DEB", "group": "cosmos-2251-debris", "lat": -22.81941679205404, "lon": 79.715315691169, "alt_km": 762.2550282810471, "timestamp": "2025-12-22T11:33:20.833761+00:00", "meta": {"OBJECT_NAME": "COSMOS 2251 DEB", "OBJECT_ID": "1993-036KB", "EPOCH": "2025-12-21T19:56:20.624928", "MEAN_MOTION": 14.42365983, "ECCENTRICITY": 0.0022353, "INCLINATION": 74.0319, "RA_OF_ASC_NODE": 254.0025, "ARG_OF_PERICENTER": 319.2796, "MEAN_ANOMALY": 107.2455, "EPHEMERIS_TYPE": 0, "CLASSIFICATION_TYPE": "U", "NORAD_CAT_ID": 34064, "ELEMENT_SET_NO": 999, "REV_AT_EPOCH": 88273, "BSTAR": 0.00036797, "MEAN_MOTION_DOT": 1.193e-05, "MEAN_MOTION_DDOT": 0}, "tle": {"line1": "1 34064U 93036KB  25355.83079427  .00001193  00000+0  36797-3 0  9996", "line2": "2 34064  74.0319 254.0025 0022353 319.2796 107.2455 14.42365983882730"}}, "geometry": {"type": "Point", "coordinates": [79.715315691169, -22.81941679205404]}}, {"type": "Feature", "properties": {"norad_id": 34065, "name": "COSMOS 2251 DEB", "group": "cosmos-2251-debris", "lat": 62.33214446065001, "lon": -86.72889417161348, "alt_km": 758.671100718183, "timestamp": "2025-12-22T11:33:20.833771+00:00", "meta": {"OBJECT_NAME": "COSMOS 2251 DEB", "OBJECT_ID": "1993-036KC", "EPOCH": "2025-12-21T17:09:44.056800", "MEAN_MOTION": 14.38071574, "ECCENTRICITY": 0.0016734, "INCLINATION": 74.0351, "RA_OF_ASC_NODE": 241.589, "ARG_OF_PERICENTER": 337.5842, "MEAN_ANOMALY": 83.283, "EPHEMERIS_TYPE": 0, "CLASSIFICATION_TYPE": "U", "NORAD_CAT_ID": 34065, "ELEMENT_SET_NO": 999, "REV_AT_EPOCH": 88334, "BSTAR": 0.00012954, "MEAN_MOTION_DOT": 3.67e-06, "MEAN_MOTION_DDOT": 0}, "tle": {"line1": "1 34065U 93036KC  25355.71509325  .00000367  00000+0  12954-3 0  9990", "line2": "2 34065  74.0351 241.5890 0016734 337.5842  83.2830 14.38071574883342"}}, "geometry": {"type": "Point", "coordinates": [-86.72889417161348, 62.33214446065001]}}, {"type": "Feature", "properties": {"norad_id": 34070, "name": "COSMOS 2251 DEB", "group": "cosmos-2251-debris", "lat": -57.85897033552296, "lon": -55.70690066032434, "alt_km": 633.2507524020893, "timestamp": "2025-12-22T11:33:20.833781+00:00", "meta": {"OBJECT_NAME": "COSMOS 2251 DEB", "OBJECT_ID": "1993-036KH", "EPOCH": "2025-12-21T13:24:18.092736", "MEAN_MOTION": 14.7729737, "ECCENTRICITY": 0.0018155, "INCLINATION": 74.0012, "RA_OF_ASC_NODE": 98.9349, "ARG_OF_PERICENTER": 215.9122, "MEAN_ANOMALY": 159.1877, "EPHEMERIS_TYPE": 0, "CLASSIFICATION_TYPE": "U", "NORAD_CAT_ID": 34070, "ELEMENT_SET_NO": 999, "REV_AT_EPOCH": 88741, "BSTAR": 0.0022779, "MEAN_MOTION_DOT": 0.00016219, "MEAN_MOTION_DDOT": 0}, "tle": {"line1": "1 34070U 93036KH  25355.55854274  .00016219  00000+0  22779-2 0  9992", "line2": "2 34070  74.0012  98.9349 0018155 215.9122 159.1877 14.77297370887417"}}, "geometry": {"type": "Point", "coordinates": [-55.70690066032434, -57.85897033552296]}}, {"type": "Feature", "properties": {"norad_id": 34114, "name": "COSMOS 2251 DEB", "group": "cosmos-2251-debris", "lat": 72.7250664200683, "lon": 92.1714349516335, "alt_km": 683.5688964255723, "timestamp": "2025-12-22T11:33:20.833791+00:00", "meta": {"OBJECT_NAME": "COSMOS 2251 DEB", "OBJECT_ID": "1993-036KK", "EPOCH": "2025-12-21T04:09:10.753632", "MEAN_MOTION": 14.56477831, "ECCENTRICITY": 0.00478914, "INCLINATION": 74.0582, "RA_OF_ASC_NODE": 27.8513, "ARG_OF_PERICENTER": 19.5405, "MEAN_ANOMALY": 45.4164, "EPHEMERIS_TYPE": 0, "CLASSIFICATION_TYPE": "U", "NORAD_CAT_ID": 34114, "ELEMENT_SET_NO": 999, "REV_AT_EPOCH": 87924, "BSTAR": 0.0010113335, "MEAN_MOTION_DOT": 4.54e-05, "MEAN_MOTION_DDOT": 0}, "tle": {"line1": "1 34114U 93036KK  25355.17304113  .00004540  00000+0  10113-2 0  9994", "line2": "2 34114  74.0582  27.8513 0047891  19.5405  45.4164 14.56477831879240"}}, "geometry": {"type": "Point", "coordinates": [92.1714349516335, 72.7250664200683]}}, {"type": "Feature", "properties": {"norad_id": 34115, "name": "COSMOS 2251 DEB", "group": "cosmos-2251-debris", "lat": -68.07011037221227, "lon": 177.29840299804707, "alt_km": 646.9847965127565, "timestamp": "2025-12-22T11:33:20.833801+00:00", "meta": {"OBJECT_NAME": "COSMOS 2251 DEB", "OBJECT_ID": "1993-036KL", "EPOCH": "2025-12-22T00:32:02.247072", "MEAN_MOTION": 14.79601673, "ECCENTRICITY": 0.0028933, "INCLINATION": 74.0054, "RA_OF_ASC_NODE": 223.6386, "ARG_OF_PERICENTER": 44.3783, "MEAN_ANOMALY": 315.9704, "EPHEMERIS_TYPE": 0, "CLASSIFICATION_TYPE": "U", "NORAD_CAT_ID": 34115, "ELEMENT_SET_NO": 999, "REV_AT_EPOCH": 89549, "BSTAR": 0.00082188, "MEAN_MOTION_DOT": 6.174e-05, "MEAN_MOTION_DDOT": 0}, "tle": {"line1": "1 34115U 93036KL  25356.02224823  .00006174  00000+0  82188-3 0  9996", "line2": "2 34115  74.0054 223.6386 0028933  44.3783 315.9704 14.79601673895498"}}, "geometry": {"type": "Point", "coordinates": [177.29840299804707, -68.07011037221227]}}, {"type": "Feature", "properties": {"norad_id": 34116, "name": "COSMOS 2251 DEB", "group": "cosmos-2251-debris", "lat": 36.816422582798666, "lon": 176.77048006091994, "alt_km": 720.595202935272, "timestamp": "2025-12-22T11:33:20.833811+00:00", "meta": {"OBJECT_NAME": "COSMOS 2251 DEB", "OBJECT_ID": "1993-036KM", "EPOCH": "2025-12-21T22:43:55.543296", "MEAN_MOTION": 14.53027637, "ECCENTRICITY": 0.0011831, "INCLINATION": 74.0396, "RA_OF_ASC_NODE": 165.4082, "ARG_OF_PERICENTER": 241.5718, "MEAN_ANOMALY": 243.1833, "EPHEMERIS_TYPE": 0, "CLASSIFICATION_TYPE": "U", "NORAD_CAT_ID": 34116, "ELEMENT_SET_NO": 999, "REV_AT_EPOCH": 88620, "BSTAR": 0.00077325, "MEAN_MOTION_DOT": 3.169e-05, "MEAN_MOTION_DDOT": 0}, "tle": {"line1": "1 34116U 93036KM  25355.94717064  .00003169  00000+0  77325-3 0  9999", "line2": "2 34116  74.0396 165.4082 0011831 241.5718 243.1833 14.53027637886200"}}, "geometry": {"type": "Point", "coordinates": [176.77048006091994, 36.816422582798666]}}]}